[{"OBJECT_NAME":"SAOCOM 1A","OBJECT_ID":"2018-076A","EPOCH":"2026-03-19T06:42:29.168064","MEAN_MOTION":14.82150742,"ECCENTRICITY":0.00014851,"INCLINATION":97.8891,"RA_OF_ASC_NODE":266.3166,"ARG_OF_PERICENTER":89.4351,"MEAN_ANOMALY":270.7033,"EPHEMERIS_TYPE":0,"CLASSIFICATION_TYPE":"U","NORAD_CAT_ID":43641,"ELEMENT_SET_NO":999,"REV_AT_EPOCH":40278,"BSTAR":7.0668107e-5,"MEAN_MOTION_DOT":5.1e-6,"MEAN_MOTION_DDOT":0},{"OBJECT_NAME":"H-2A R/B","OBJECT_ID":"2018-084L","EPOCH":"2026-03-19T03:28:27.542208","MEAN_MOTION":15.41735802,"ECCENTRICITY":0.00246406,"INCLINATION":98.8717,"RA_OF_ASC_NODE":297.5568,"ARG_OF_PERICENTER":352.8336,"MEAN_ANOMALY":7.255,"EPHEMERIS_TYPE":0,"CLASSIFICATION_TYPE":"U","NORAD_CAT_ID":43682,"ELEMENT_SET_NO":999,"REV_AT_EPOCH":40723,"BSTAR":0.0004015335,"MEAN_MOTION_DOT":0.00017053,"MEAN_MOTION_DDOT":0},{"OBJECT_NAME":"SAOCOM 1B","OBJECT_ID":"2020-059A","EPOCH":"2026-03-19T05:50:12.704640","MEAN_MOTION":14.82144105,"ECCENTRICITY":0.00014706,"INCLINATION":97.8892,"RA_OF_ASC_NODE":265.3787,"ARG_OF_PERICENTER":87.9185,"MEAN_ANOMALY":272.2196,"EPHEMERIS_TYPE":0,"CLASSIFICATION_TYPE":"U","NORAD_CAT_ID":46265,"ELEMENT_SET_NO":999,"REV_AT_EPOCH":30016,"BSTAR":-3.8061104e-5,"MEAN_MOTION_DOT":-3.55e-6,"MEAN_MOTION_DDOT":0},{"OBJECT_NAME":"CSS (TIANHE)","OBJECT_ID":"2021-035A","EPOCH":"2026-03-19T05:58:10.805088","MEAN_MOTION":15.61165238,"ECCENTRICITY":0.00058837,"INCLINATION":41.4668,"RA_OF_ASC_NODE":149.9763,"ARG_OF_PERICENTER":332.662,"MEAN_ANOMALY":27.3909,"EPHEMERIS_TYPE":0,"CLASSIFICATION_TYPE":"U","NORAD_CAT_ID":48274,"ELEMENT_SET_NO":999,"REV_AT_EPOCH":27910,"BSTAR":0.00022195746,"MEAN_MOTION_DOT":0.00019024,"MEAN_MOTION_DDOT":0},{"OBJECT_NAME":"COSMOS 2550","OBJECT_ID":"2021-056A","EPOCH":"2026-03-19T07:09:47.218752","MEAN_MOTION":15.33849578,"ECCENTRICITY":0.00080904,"INCLINATION":67.1452,"RA_OF_ASC_NODE":11.816,"ARG_OF_PERICENTER":270.1459,"MEAN_ANOMALY":89.8768,"EPHEMERIS_TYPE":0,"CLASSIFICATION_TYPE":"U","NORAD_CAT_ID":48865,"ELEMENT_SET_NO":999,"REV_AT_EPOCH":26493,"BSTAR":-3.5695e-8,"MEAN_MOTION_DOT":-1.93e-6,"MEAN_MOTION_DDOT":0},{"OBJECT_NAME":"CZ-2C R/B","OBJECT_ID":"2022-058K","EPOCH":"2026-03-18T19:58:59.642400","MEAN_MOTION":15.54873206,"ECCENTRICITY":0.00418728,"INCLINATION":50.1877,"RA_OF_ASC_NODE":271.2345,"ARG_OF_PERICENTER":239.8584,"MEAN_ANOMALY":119.8235,"EPHEMERIS_TYPE":0,"CLASSIFICATION_TYPE":"U","NORAD_CAT_ID":52794,"ELEMENT_SET_NO":999,"REV_AT_EPOCH":21155,"BSTAR":0.00040983175,"MEAN_MOTION_DOT":0.00028615,"MEAN_MOTION_DDOT":0},{"OBJECT_NAME":"CZ-2C R/B","OBJECT_ID":"2022-132E","EPOCH":"2026-03-18T23:30:19.708992","MEAN_MOTION":15.62685246,"ECCENTRICITY":0.00196684,"INCLINATION":97.2955,"RA_OF_ASC_NODE":81.5839,"ARG_OF_PERICENTER":61.8989,"MEAN_ANOMALY":298.4254,"EPHEMERIS_TYPE":0,"CLASSIFICATION_TYPE":"U","NORAD_CAT_ID":54039,"ELEMENT_SET_NO":999,"REV_AT_EPOCH":19182,"BSTAR":0.00042931556,"MEAN_MOTION_DOT":0.00038816,"MEAN_MOTION_DDOT":0},{"OBJECT_NAME":"GSLV R/B","OBJECT_ID":"2022-138AN","EPOCH":"2026-03-19T06:44:33.673920","MEAN_MOTION":14.96836681,"ECCENTRICITY":0.00239419,"INCLINATION":87.3871,"RA_OF_ASC_NODE":163.152,"ARG_OF_PERICENTER":114.7039,"MEAN_ANOMALY":245.6689,"EPHEMERIS_TYPE":0,"CLASSIFICATION_TYPE":"U","NORAD_CAT_ID":54149,"ELEMENT_SET_NO":999,"REV_AT_EPOCH":18536,"BSTAR":0.00017245785,"MEAN_MOTION_DOT":2.015e-5,"MEAN_MOTION_DDOT":0},{"OBJECT_NAME":"XRISM","OBJECT_ID":"2023-137A","EPOCH":"2026-03-18T19:40:00.371136","MEAN_MOTION":15.11599686,"ECCENTRICITY":0.00079235,"INCLINATION":31.001,"RA_OF_ASC_NODE":224.6051,"ARG_OF_PERICENTER":130.8278,"MEAN_ANOMALY":229.3048,"EPHEMERIS_TYPE":0,"CLASSIFICATION_TYPE":"U","NORAD_CAT_ID":57800,"ELEMENT_SET_NO":999,"REV_AT_EPOCH":13917,"BSTAR":0.00025690581,"MEAN_MOTION_DOT":4.57e-5,"MEAN_MOTION_DDOT":0},{"OBJECT_NAME":"ACS3","OBJECT_ID":"2024-077B","EPOCH":"2026-03-19T06:56:05.114976","MEAN_MOTION":13.90033445,"ECCENTRICITY":0.00681251,"INCLINATION":97.2021,"RA_OF_ASC_NODE":17.2439,"ARG_OF_PERICENTER":54.1752,"MEAN_ANOMALY":306.5717,"EPHEMERIS_TYPE":0,"CLASSIFICATION_TYPE":"U","NORAD_CAT_ID":59588,"ELEMENT_SET_NO":999,"REV_AT_EPOCH":9553,"BSTAR":0.016026659,"MEAN_MOTION_DOT":0.00020162,"MEAN_MOTION_DDOT":0},{"OBJECT_NAME":"SZ-21 MODULE","OBJECT_ID":"2025-246C","EPOCH":"2026-03-18T12:56:49.994592","MEAN_MOTION":15.69230343,"ECCENTRICITY":4.776e-5,"INCLINATION":41.4738,"RA_OF_ASC_NODE":148.8547,"ARG_OF_PERICENTER":292.1706,"MEAN_ANOMALY":67.9085,"EPHEMERIS_TYPE":0,"CLASSIFICATION_TYPE":"U","NORAD_CAT_ID":66515,"ELEMENT_SET_NO":999,"REV_AT_EPOCH":1946,"BSTAR":0.00024028713,"MEAN_MOTION_DOT":0.00028586,"MEAN_MOTION_DDOT":0}]
